OBJECT_NAME,OBJECT_ID,EPOCH,MEAN_MOTION,ECCENTRICITY,INCLINATION,RA_OF_ASC_NODE,ARG_OF_PERICENTER,MEAN_ANOMALY,EPHEMERIS_TYPE,CLASSIFICATION_TYPE,NORAD_CAT_ID,ELEMENT_SET_NO,REV_AT_EPOCH,BSTAR,MEAN_MOTION_DOT,MEAN_MOTION_DDOT
STARLINK-11106 [DTC],2024-091N,2026-07-18T06:03:03.813408,15.69705406,.00007339,53.1579,282.3367,96.6994,263.4107,0,U,59765,999,12602,.1619251E-4,.1374E-4,0
STARLINK-31739,2024-091P,2026-07-18T02:37:31.509408,15.30193795,.00014781,53.1584,138.1678,95.1246,264.9923,0,U,59766,999,12301,.13013699E-3,.3496E-4,0
STARLINK-31828,2024-091Q,2026-07-18T13:33:08.028000,15.31698353,.000163,53.1597,138.1536,86.2204,273.8984,0,U,59767,999,12305,.15883E-4,.127E-5,0
STARLINK-31826,2024-091R,2026-07-18T19:18:45.331776,15.52719549,.00053364,53.1493,128.9395,48.6742,311.4727,0,U,59768,999,12320,.16981183E-2,.1077E-2,0
STARLINK-31830,2024-091S,2026-07-18T20:23:25.207584,15.30195219,.00015467,53.1582,137.7968,103.7191,256.3982,0,U,59769,999,12308,.3248009E-4,.603E-5,0
STARLINK-31829,2024-091T,2026-07-18T20:09:45.052128,15.30198200,.00012682,53.1601,137.7433,81.3341,278.7803,0,U,59770,999,12308,.96759542E-4,.2507E-4,0
STARLINK-31786,2024-091U,2026-07-18T20:29:30.000480,15.30189675,.00012083,53.1595,137.8237,85.7839,274.3300,0,U,59771,999,12308,.298702E-6,-.35E-5,0
STARLINK-31835,2024-091V,2026-07-18T21:16:13.092960,15.31693886,.00014527,53.1607,136.6064,109.7474,250.3685,0,U,59772,999,12310,.8364008E-5,-.106E-5,0
COSMOS 2576,2024-092A,2026-07-18T18:42:28.160640,15.20291857,.0010953,97.4413,315.3160,259.0320,100.9684,0,U,59773,999,12118,.14586E-3,.3103E-4,0
2024-092B,2024-092B,2026-07-18T21:50:02.859648,15.29260133,.00097261,97.6528,329.9021,76.1361,284.0960,0,U,59774,999,12038,.19299802E-3,.5405E-4,0
2024-092C,2024-092C,2026-07-18T21:00:45.377280,15.29976379,.00097808,97.6674,331.8123,77.9459,282.2876,0,U,59775,999,12042,.18510461E-3,.5297E-4,0
2024-092D,2024-092D,2026-07-18T20:28:12.516960,15.38035244,.00068505,97.6612,334.2717,48.1260,312.0568,0,U,59776,999,12061,.29759483E-3,.11061E-3,0
2024-092E,2024-092E,2026-07-18T20:51:37.994400,15.37952448,.0006976,97.6613,334.2411,47.8602,312.3234,0,U,59777,999,12061,.28804594E-3,.10674E-3,0
2024-092F,2024-092F,2026-07-18T21:27:41.577408,15.38749184,.00070971,97.6609,334.6278,46.9732,313.2106,0,U,59778,999,12064,.29020743E-3,.11039E-3,0
2024-092G,2024-092G,2026-07-18T22:48:21.967200,14.31855515,.00130321,98.6733,318.9623,113.3712,246.8844,0,U,59779,999,11344,.38462432E-4,.58E-6,0
2024-092H,2024-092H,2026-07-18T22:48:11.378016,14.31857748,.00133942,98.6734,318.9545,114.8538,245.4039,0,U,59780,999,11344,.45670688E-4,.78E-6,0
2024-092J,2024-092J,2026-07-18T22:46:04.920384,14.31858231,.00132752,98.6732,318.9586,115.0199,245.2364,0,U,59781,999,11344,.43339948E-4,.72E-6,0
STARLINK-31363,2024-093A,2026-07-18T08:13:43.200768,15.27573778,.00010395,43.0011,187.8315,272.8056,87.2677,0,U,59782,999,12271,.4161499E-5,-.147E-5,0
STARLINK-31868,2024-093B,2026-07-18T16:06:20.358144,15.27575081,.00008135,43.0017,185.9598,276.4153,83.6606,0,U,59783,999,12276,-.502772E-6,-.276E-5,0
STARLINK-31848,2024-093C,2026-07-18T06:04:24.755520,15.27578631,.00012346,43.0008,188.0617,270.5646,89.5064,0,U,59784,999,12270,.20800889E-4,.31E-5,0
STARLINK-31890,2024-093D,2026-07-18T07:44:07.007712,15.27578360,.00011723,43.0014,187.7224,273.6705,86.4012,0,U,59785,999,12271,.3097488E-5,-.177E-5,0
STARLINK-31862,2024-093E,2026-07-18T16:29:30.349248,15.27573914,.00011589,43.0021,188.7629,276.1835,83.8884,0,U,59786,999,12273,.4086362E-5,-.15E-5,0
STARLINK-31870,2024-093F,2026-07-18T00:42:23.653152,15.27573851,.00011508,43.0025,192.4270,290.4054,69.6674,0,U,59787,999,12263,-.20915504E-4,-.837E-5,0
STARLINK-31888,2024-093G,2026-07-18T16:38:45.472704,15.27576035,.0001392,43.0022,188.8128,285.6675,74.4023,0,U,59788,999,12273,.1593308E-5,-.218E-5,0
STARLINK-31863,2024-093H,2026-07-18T08:44:17.191968,15.27576112,.00011148,43.0028,190.6394,280.2470,79.8256,0,U,59789,999,12268,.52409324E-4,.118E-4,0
STARLINK-31873,2024-093J,2026-07-18T16:49:52.548960,15.27577808,.00022123,43.0040,188.8663,261.7533,98.3068,0,U,59790,999,12273,-.10173674E-3,-.3061E-4,0
STARLINK-31865,2024-093K,2026-07-18T09:04:37.536672,15.27576217,.00017806,43.0018,190.7425,274.3529,85.7119,0,U,59791,999,12268,.17847837E-4,.229E-5,0
STARLINK-31823,2024-093N,2026-07-18T09:10:10.814304,15.27575656,.00015003,43.0011,190.7684,271.6763,88.3917,0,U,59794,999,12268,.3654884E-4,.744E-5,0
STARLINK-31916,2024-093P,2026-07-18T09:15:43.981344,15.27581394,.00014138,43.0014,190.7966,274.1864,85.8826,0,U,59795,999,12268,-.22834371E-4,-.89E-5,0
STARLINK-31907,2024-093R,2026-07-17T11:21:14.306400,15.27578827,.000136,43.0013,195.9853,274.6406,85.4291,0,U,59797,999,12254,.36915E-4,.754E-5,0
