STARLINK-11106 [DTC]    
1 59765U 24091N   26199.25212747  .00001374  00000+0  16193-4 0  9993
2 59765  53.1579 282.3367 0000733  96.6994 263.4107 15.69705406126028
STARLINK-31739          
1 59766U 24091P   26199.10939247  .00003496  00000+0  13014-3 0  9994
2 59766  53.1584 138.1678 0001478  95.1246 264.9923 15.30193795123017
STARLINK-31828          
1 59767U 24091Q   26199.56467625  .00000127  00000+0  15883-4 0  9996
2 59767  53.1597 138.1536 0001630  86.2204 273.8984 15.31698353123051
STARLINK-31826          
1 59768U 24091R   26199.80469134  .00107700  00000+0  16981-2 0  9994
2 59768  53.1493 128.9395 0005336  48.6742 311.4727 15.52719549123208
STARLINK-31830          
1 59769U 24091S   26199.84959731  .00000603  00000+0  32480-4 0  9994
2 59769  53.1582 137.7968 0001546 103.7191 256.3982 15.30195219123086
STARLINK-31829          
1 59770U 24091T   26199.84010477  .00002507  00000+0  96760-4 0  9997
2 59770  53.1601 137.7433 0001268  81.3341 278.7803 15.30198200123089
STARLINK-31786          
1 59771U 24091U   26199.85381945 -.00000350  00000+0  29870-6 0  9995
2 59771  53.1595 137.8237 0001208  85.7839 274.3300 15.30189675123089
STARLINK-31835          
1 59772U 24091V   26199.88626265 -.00000106  00000+0  83640-5 0  9999
2 59772  53.1607 136.6064 0001452 109.7474 250.3685 15.31693886123100
COSMOS 2576             
1 59773U 24092A   26199.77949260  .00003103  00000+0  14586-3 0  9992
2 59773  97.4413 315.3160 0010953 259.0320 100.9684 15.20291857121180
2024-092B               
1 59774U 24092B   26199.90975532  .00005405  00000+0  19300-3 0  9995
2 59774  97.6528 329.9021 0009726  76.1361 284.0960 15.29260133120380
2024-092C               
1 59775U 24092C   26199.87552520  .00005297  00000+0  18510-3 0  9991
2 59775  97.6674 331.8123 0009780  77.9459 282.2876 15.29976379120422
2024-092D               
1 59776U 24092D   26199.85292265  .00011061  00000+0  29759-3 0  9990
2 59776  97.6612 334.2717 0006850  48.1260 312.0568 15.38035244120614
2024-092E               
1 59777U 24092E   26199.86918975  .00010674  00000+0  28805-3 0  9995
2 59777  97.6613 334.2411 0006976  47.8602 312.3234 15.37952448120618
2024-092F               
1 59778U 24092F   26199.89423122  .00011039  00000+0  29021-3 0  9991
2 59778  97.6609 334.6278 0007097  46.9732 313.2106 15.38749184120641
2024-092G               
1 59779U 24092G   26199.95025425  .00000058  00000+0  38462-4 0  9992
2 59779  98.6733 318.9623 0013032 113.3712 246.8844 14.31855515113441
2024-092H               
1 59780U 24092H   26199.95013169  .00000078  00000+0  45671-4 0  9998
2 59780  98.6734 318.9545 0013394 114.8538 245.4039 14.31857748113441
2024-092J               
1 59781U 24092J   26199.94866806  .00000072  00000+0  43340-4 0  9997
2 59781  98.6732 318.9586 0013275 115.0199 245.2364 14.31858231113446
STARLINK-31363          
1 59782U 24093A   26199.34286112 -.00000147  00000+0  41615-5 0  9997
2 59782  43.0011 187.8315 0001039 272.8056  87.2677 15.27573778122710
STARLINK-31868          
1 59783U 24093B   26199.67106896 -.00000276  00000+0 -50277-6 0  9993
2 59783  43.0017 185.9598 0000813 276.4153  83.6606 15.27575081122762
STARLINK-31848          
1 59784U 24093C   26199.25306430  .00000310  00000+0  20801-4 0  9999
2 59784  43.0008 188.0617 0001234 270.5646  89.5064 15.27578631122700
STARLINK-31890          
1 59785U 24093D   26199.32230333 -.00000177  00000+0  30975-5 0  9992
2 59785  43.0014 187.7224 0001172 273.6705  86.4012 15.27578360122718
STARLINK-31862          
1 59786U 24093E   26199.68715682 -.00000150  00000+0  40864-5 0  9996
2 59786  43.0021 188.7629 0001158 276.1835  83.8884 15.27573914122733
STARLINK-31870          
1 59787U 24093F   26199.02944043 -.00000837  00000+0 -20916-4 0  9998
2 59787  43.0025 192.4270 0001150 290.4054  69.6674 15.27573851122634
STARLINK-31888          
1 59788U 24093G   26199.69358186 -.00000218  00000+0  15933-5 0  9995
2 59788  43.0022 188.8128 0001392 285.6675  74.4023 15.27576035122736
STARLINK-31863          
1 59789U 24093H   26199.36408787  .00001180  00000+0  52409-4 0  9999
2 59789  43.0028 190.6394 0001114 280.2470  79.8256 15.27576112122682
STARLINK-31873          
1 59790U 24093J   26199.70130265 -.00003061  00000+0 -10174-3 0  9996
2 59790  43.0040 188.8663 0002212 261.7533  98.3068 15.27577808122736
STARLINK-31865          
1 59791U 24093K   26199.37821223  .00000229  00000+0  17848-4 0  9998
2 59791  43.0018 190.7425 0001780 274.3529  85.7119 15.27576217122688
STARLINK-31823          
1 59794U 24093N   26199.38206961  .00000744  00000+0  36549-4 0  9999
2 59794  43.0011 190.7684 0001500 271.6763  88.3917 15.27575656122682
STARLINK-31916          
1 59795U 24093P   26199.38592571 -.00000890  00000+0 -22834-4 0  9991
2 59795  43.0014 190.7966 0001413 274.1864  85.8826 15.27581394122689
STARLINK-31907          
1 59797U 24093R   26198.47308225  .00000754  00000+0  36915-4 0  9995
2 59797  43.0013 195.9853 0001360 274.6406  85.4291 15.27578827122544
